QZS-1R                  
1 49336U 21096A   24065.60178650 -.00000233  00000+0  00000+0 0  9990
2 49336  35.7277  92.1014 0748783 269.3459 151.8179  1.00295052  8644
